satname,norad_id,inclination_deg,eccentricity,mean_motion_rev_per_day,perigee_km,apogee_km,l1,l2
STARLINK-1457,45674,53.0547,0.0001289,15.06413977,546.2760488701433,548.0613926849592,1 45674U 20035T   25265.81778185 -.00001824  00000+0 -10354-3 0  9993,2 45674  53.0547 100.2247 0001289  94.5394 265.5743 15.06413977293405
STARLINK-1458,45675,53.0533,0.0001531,15.06395115,546.1662566437562,548.2868029565798,1 45675U 20035U   25265.80674870  .00005252  00000+0  37126-3 0  9992,2 45675  53.0533 100.2740 0001531  89.4205 270.6959 15.06395115293390
STARLINK-1460,45676,53.0535,0.0001242,15.06397044,546.3604882512354,548.0807470834634,1 45676U 20035V   25265.84358567 -.00001286  00000+0 -67492-4 0  9994,2 45676  53.0535 100.1079 0001242  88.4922 271.6210 15.06397044293395
STARLINK-1392,45677,53.0548,0.0001352,15.06401369,546.2710555958638,548.1436687113901,1 45677U 20035W   25265.52291849  .00001498  00000+0  11944-3 0  9992,2 45677  53.0548 101.5499 0001352  97.0252 263.0891 15.06401369293380
STARLINK-1394,45679,53.0535,0.000127,15.06402876,546.3232252791058,548.0822615739362,1 45679U 20035Y   25265.78554112  .00006589  00000+0  46077-3 0  9998,2 45679  53.0535  90.3700 0001270  83.1574 276.9559 15.06402876293568
STARLINK-1402,45685,53.0551,0.0001061,15.06373577,546.55775373703,548.0273298858028,1 45685U 20035AE  25265.68365092 -.00001922  00000+0 -11027-3 0  9996,2 45685  53.0551  85.2479 0001061 104.4293 255.6814 15.06373577293633
STARLINK-1404,45686,53.0549,0.0001461,15.06395501,546.2135513207595,548.2371421984826,1 45686U 20035AF  25265.74499609  .00000782  00000+0  71400-4 0  9999,2 45686  53.0549  90.5539 0001461  92.3599 267.7558 15.06395501293567
STARLINK-1413,45689,53.053,0.0001325,15.0640014,546.2935202314011,548.1287374855492,1 45689U 20035AJ  25266.22784158  .00000547  00000+0  55596-4 0  9999,2 45689  53.0530  88.3805 0001325  89.0187 271.0953 15.06400140293547
STARLINK-1417,45693,53.0543,0.0001273,15.06400123,546.3295841375821,548.0927777844545,1 45693U 20035AN  25266.22416422  .00001065  00000+0  90354-4 0  9997,2 45693  53.0543  88.4035 0001273  90.6941 269.4194 15.06400123293628
STARLINK-1420,45695,53.0551,0.0001333,15.06397963,546.2946512619492,548.1409508519109,1 45695U 20035AQ  25265.76063195  .00000837  00000+0  75086-4 0  9993,2 45695  53.0551  70.4722 0001333  86.0440 274.0702 15.06397963293841
STARLINK-1422,45696,53.0535,0.0001215,15.06404163,546.3573706726665,548.0402272718175,1 45696U 20035AR  25266.23523004  .00006515  00000+0  45582-3 0  9993,2 45696  53.0535  88.3527 0001215  95.7144 264.3984 15.06404163293623
STARLINK-1351,45697,53.0551,0.0001255,15.06401384,546.338185469177,548.0764468925381,1 45697U 20035AS  25266.14491000  .00000776  00000+0  70973-4 0  9990,2 45697  53.0551  68.7551 0001255  90.6425 269.4708 15.06401384293904
STARLINK-1398,45699,53.0522,0.0004053,15.43683342,432.4880950617571,438.01102620780784,1 45699U 20035AU  25266.00002315 -.00036168  00000+0 -78379-3 0  9997,2 45699  53.0522  40.0224 0004053 169.4772 191.9899 15.43683342  5901
STARLINK-1400,45700,53.0539,0.0001348,15.06405717,546.2605015884101,548.1275708357734,1 45700U 20035AV  25265.72103675  .00002363  00000+0  17743-3 0  9995,2 45700  53.0539  70.6602 0001348  93.8767 266.2377 15.06405717293834
STARLINK-1403,45701,53.055,0.0001324,15.06408786,546.2677176607276,548.1015428284163,1 45701U 20035AW  25265.75052168  .00003281  00000+0  23898-3 0  9997,2 45701  53.0550  70.5268 0001324  82.9745 277.1395 15.06408786293834
STARLINK-1407,45703,53.0444,0.0007789,15.3492984,455.8017928796771,466.45600129415925,1 45703U 20035AY  25266.07650349  .00161683  00000+0  46124-2 0  9997,2 45703  53.0444  36.2096 0007789 248.8346 111.1823 15.34929840294358
STARLINK-1411,45706,53.0557,4.34e-05,15.29094765,478.21951069141414,478.8146682663819,1 45706U 20035BB  25266.25003472  .00177843  00000+0  60771-2 0  9998,2 45706  53.0557  61.7391 0000434  59.1699 145.6146 15.29094765  5848
STARLINK-1423,45710,53.0557,0.0001319,15.06393131,546.3191542623317,548.1460667655847,1 45710U 20035BF  25266.17440756 -.00000205  00000+0  51546-5 0  9995,2 45710  53.0557  68.6260 0001319  90.1604 269.9536 15.06393131293901
STARLINK-1433,45711,53.0548,0.0001392,15.06407428,546.2247869313669,548.1527976319376,1 45711U 20035BG  25265.75789371  .00000986  00000+0  85074-4 0  9995,2 45711  53.0548  70.4940 0001392  94.9228 265.1920 15.06407428293835
STARLINK-1434,45712,53.0514,0.0003342,15.11510594,529.2832410865358,533.9017042660726,1 45712U 20035BH  25265.77379941  .00055567  00000+0  32351-2 0  9999,2 45712  53.0514  68.5397 0003342 119.5950 240.5375 15.11510594293876
STARLINK-1465,45731,53.053,0.0001339,15.06402278,546.2772729681137,548.1318794422214,1 45731U 20038B   25266.18915479  .00003601  00000+0  26053-3 0  9996,2 45731  53.0530 268.5579 0001339  82.3423 277.7718 15.06402278290946
STARLINK-1471,45735,53.0524,0.0003519,15.38333184,448.6347167749118,453.4410900719413,1 45735U 20038F   25266.13043905  .00031613  00000+0  83102-3 0  9993,2 45735  53.0524 218.1675 0003519  58.5580 301.5766 15.38333184291654
STARLINK-1474,45738,53.04,0.000654,15.60590005,381.52798443247775,390.3754124500383,1 45738U 20038J   25266.17739372  .00104468  00000+0  12299-2 0  9997,2 45738  53.0400 181.9232 0006540 122.0812 238.0836 15.60590005292169
STARLINK-1475,45739,53.0528,0.0008211,15.59812847,382.64242461623417,393.75410038431164,1 45739U 20038K   25266.09442246  .00209429  00000+0  24997-2 0  9991,2 45739  53.0528 150.0256 0008211  90.4929 269.7024 15.59812847292617
STARLINK-1480,45741,53.0534,0.0001698,15.06402192,546.0289167377341,548.3807628265249,1 45741U 20038M   25266.17071510 -.00000334  00000+0 -34878-5 0  9993,2 45741  53.0534 268.6439 0001698 101.2008 258.9172 15.06402192290956
STARLINK-1500,45744,53.0365,0.0005333,15.25340153,486.1015578417873,493.42686127190063,1 45744U 20038Q   25265.67335731  .00098871  00000+0  38316-2 0  9997,2 45744  53.0365 255.2002 0005333  69.8217 290.3353 15.25340153291096
STARLINK-1504,45746,53.0295,0.0006506,15.35225334,455.80221725295996,464.7003280733479,1 45746U 20038S   25266.15549049  .00044964  00000+0  12986-2 0  9991,2 45746  53.0295 220.6287 0006506  47.4470 312.7079 15.35225334291613
STARLINK-1506,45747,53.0552,0.000489,15.19744274,503.2461898927868,509.97947522903087,1 45747U 20038T   25265.67556826  .00017487  00000+0  82054-3 0  9993,2 45747  53.0552 256.0155 0004890  95.9516 264.2037 15.19744274291087
